ONEWEB-0029             
1 45445U 20020X   25290.92734101  .00000333  00000+0  90377-3 0  9998
2 45445  87.8833  69.3064 0001510  98.5480 261.5819 13.11414940270908
ONEWEB-0068             
1 45446U 20020Y   25290.91110267  .00000516  00000+0  14197-2 0  9997
2 45446  87.8830  69.2979 0001437  98.8918 261.2373 13.11418243270842
ONEWEB-0046             
1 45447U 20020Z   25290.90275652  .00000216  00000+0  57326-3 0  9996
2 45447  87.8830  69.3085 0001405  87.8366 272.2922 13.11419298270856
ONEWEB-0063             
1 45448U 20020AA  25290.93158672  .00000193  00000+0  50788-3 0  9991
2 45448  87.8827  69.3008 0001672  89.1315 271.0005 13.11414103270942
ONEWEB-0019             
1 45449U 20020AB  25290.90530599  .00000378  00000+0  10310-2 0  9992
2 45449  87.8823  69.3207 0001628  99.3087 260.8225 13.11417601270788
ONEWEB-0094             
1 45450U 20020AC  25290.89060877 -.00000065  00000+0 -20100-3 0  9993
2 45450  87.9111  54.0141 0001658 101.1040 259.0278 13.17647022274402
ONEWEB-0087             
1 45451U 20020AD  25290.94161232 -.00000165  00000+0 -50123-3 0  9996
2 45451  87.8836  69.2515 0001339 102.8823 257.2454 13.11414890270830
ONEWEB-0082             
1 45452U 20020AE  25290.93836280 -.00000107  00000+0 -33665-3 0  9996
2 45452  87.8839  69.2778 0001417 101.0996 259.0291 13.11414310270920
ONEWEB-0050             
1 45453U 20020AF  25290.93902629 -.00003504  00000+0 -37503-3 0  9997
2 45453  88.7343 266.3900 0005732 103.9687 256.2180 14.89063830304310
ONEWEB-0034             
1 45454U 20020AG  25290.88325297 -.00000468  00000+0 -13561-2 0  9995
2 45454  87.8829  69.3077 0001580  97.3963 262.7345 13.11418231270833
ONEWEB-0060             
1 45455U 20020AH  25290.93073503  .00000230  00000+0  61455-3 0  9993
2 45455  87.8818  69.3214 0001060 145.4547 214.6650 13.11415415270792
ONEWEB-0086             
1 45456U 20020AJ  25290.90954916  .00000501  00000+0  13772-2 0  9996
2 45456  87.8828  69.2992 0001675 123.7129 236.4159 13.11418184270852
ONEWEB-0088             
1 45457U 20020AK  25290.88750794 -.00000301  00000+0 -88377-3 0  9996
2 45457  87.8839  69.2531 0001476  93.3010 266.8287 13.11417278270788
ONEWEB-0102             
1 47258U 20100A   25290.85306901 -.00000065  00000+0 -21691-3 0  9993
2 47258  87.8966  38.8256 0001915 101.4885 258.6459 13.12441675232940
ONEWEB-0109             
1 47259U 20100B   25290.86117551 -.00000354  00000+0 -10207-2 0  9997
2 47259  87.8960  38.7913 0001858 103.5076 256.6260 13.12443207232777
ONEWEB-0110             
1 47260U 20100C   25290.81088770 -.00000082  00000+0 -26207-3 0  9990
2 47260  87.8962  38.7856 0001667 110.6899 249.4408 13.12445166232935
ONEWEB-0111             
1 47261U 20100D   25290.84172465  .00000245  00000+0  64664-3 0  9997
2 47261  87.8964  38.7971 0001756 101.1393 258.9933 13.12441962232779
ONEWEB-0114             
1 47262U 20100E   25290.79628804 -.00000393  00000+0 -11267-2 0  9991
2 47262  87.8963  38.8002 0002014  98.0458 262.0900 13.12444595232729
ONEWEB-0117             
1 47263U 20100F   25290.86441666 -.00000460  00000+0 -13127-2 0  9991
2 47263  87.8965  38.7849 0001686 102.3516 257.7801 13.12443537232746
ONEWEB-0118             
1 47264U 20100G   25290.82061850  .00000138  00000+0  34907-3 0  9991
2 47264  87.8965  38.7925 0001910  91.3135 268.8213 13.12444916232939
ONEWEB-0119             
1 47265U 20100H   25290.84820270  .00000072  00000+0  16552-3 0  9996
2 47265  87.8962  38.8241 0001763 102.6817 257.4509 13.12442517232913
ONEWEB-0120             
1 47266U 20100J   25290.79480614 -.00000404  00000+0 -11580-2 0  9991
2 47266  87.8965  38.8365 0001824 100.5836 259.5498 13.12444434232932
ONEWEB-0121             
1 47267U 20100K   25290.85955618 -.00000308  00000+0 -89216-3 0  9995
2 47267  87.8964  38.7896 0001646 106.6760 253.4550 13.12443260232854
ONEWEB-0122             
1 47268U 20100L   25290.85455230 -.00000260  00000+0 -75885-3 0  9995
2 47268  87.8964  38.7935 0001893 104.9060 255.2278 13.12441647232761
ONEWEB-0123             
1 47269U 20100M   25290.84983236  .00000035  00000+0  61713-4 0  9991
2 47269  87.8962  38.8221 0001695  97.9043 262.2278 13.12441601232905
ONEWEB-0124             
1 47270U 20100N   25290.83848042  .00000336  00000+0  89909-3 0  9997
2 47270  87.8964  38.8275 0001532 103.1224 257.0076 13.12442242232785
ONEWEB-0125             
1 47271U 20100P   25290.81575472  .00000119  00000+0  29665-3 0  9992
2 47271  87.8963  38.7942 0001517  92.9235 267.2068 13.12445095232845
ONEWEB-0126             
1 47272U 20100Q   25290.83700232  .00000295  00000+0  78363-3 0  9993
2 47272  87.8967  38.8136 0001816  99.8263 260.3071 13.12441766232912
ONEWEB-0127             
1 47273U 20100R   25290.80277684 -.00000372  00000+0 -10687-2 0  9993
2 47273  87.8962  38.8311 0001842 102.8885 257.2450 13.12444436232932
ONEWEB-0128             
1 47274U 20100S   25290.82549489  .00000363  00000+0  97325-3 0  9994
2 47274  87.8955  38.8481 0001789 108.9205 251.2118 13.12444135232959
ONEWEB-0129             
1 47275U 20100T   25290.80440309 -.00000287  00000+0 -83177-3 0  9991
2 47275  87.8963  38.7995 0002923  98.3749 261.7711 13.12444476232889
ONEWEB-0130             
1 47276U 20100U   25290.83199158  .00000427  00000+0  11509-2 0  9991
2 47276  87.8963  38.7907 0001757 103.8802 256.2522 13.12442889232851
ONEWEB-0131             
1 47277U 20100V   25290.82874981  .00000440  00000+0  11869-2 0  9999
2 47277  87.8962  38.8209 0001666 102.1124 258.0191 13.12443444232899
ONEWEB-0132             
1 47278U 20100W   25290.85793637 -.00000269  00000+0 -78422-3 0  9991
2 47278  87.8964  38.8172 0001689 102.4436 257.6882 13.12442996232797
ONEWEB-0133             
1 47279U 20100X   25290.79778115 -.00000453  00000+0 -12942-2 0  9998
2 47279  87.8955  38.7947 0001701 106.9334 253.1981 13.12443202232947
ONEWEB-0134             
1 47280U 20100Y   25290.84334275  .00000238  00000+0  62574-3 0  9997
2 47280  87.8963  38.7767 0001908 107.4413 252.6924 13.12441980232921
ONEWEB-0135             
1 47281U 20100Z   25290.81414678  .00000160  00000+0  41065-3 0  9997
2 47281  87.8956  38.8226 0001910 113.6051 246.5279 13.12444872232945
ONEWEB-0136             
1 47282U 20100AA  25290.83361632  .00000411  00000+0  11081-2 0  9994
2 47282  87.8965  38.7878 0002078 109.7694 250.3659 13.12443194232876
ONEWEB-0137             
1 47283U 20100AB  25290.86766102 -.00000550  00000+0 -15637-2 0  9996
2 47283  87.8966  38.7872 0001815  94.7633 265.3702 13.12443640232787
ONEWEB-0138             
1 47284U 20100AC  25290.84658794  .00000049  00000+0  10142-3 0  9990
2 47284  87.8967  38.8008 0001906 104.9914 255.1426 13.12440622232864
ONEWEB-0139             
1 47285U 20100AD  25290.80940997 -.00000139  00000+0 -42201-3 0  9999
2 47285  87.8960  38.7977 0001702 101.4744 258.6576 13.12446059232931
ONEWEB-0140             
1 47286U 20100AE  25290.84010625  .00001340  00000+0  36886-2 0  9994
2 47286  87.8961  38.7781 0002259  87.2969 272.8418 13.12435530232906
ONEWEB-0141             
1 47287U 20100AF  25290.80912465 -.00000486  00000+0 -13855-2 0  9997
2 47287  87.8952  38.7965 0001732  90.2244 269.9083 13.12438418232886
ONEWEB-0142             
1 47288U 20100AG  25290.79805372 -.00000413  00000+0 -11841-2 0  9997
2 47288  87.8962  38.8178 0002012  92.8680 267.2678 13.12444710232871
ONEWEB-0143             
1 47289U 20100AH  25290.80765215 -.00000123  00000+0 -37696-3 0  9996
2 47289  87.8966  38.8123 0001682 101.0561 259.0757 13.12443693232853
ONEWEB-0144             
1 47290U 20100AJ  25290.85634405 -.00000107  00000+0 -33353-3 0  9997
2 47290  87.8954  38.7750 0002031 102.5531 257.5825 13.12446209232786
ONEWEB-0145             
1 47291U 20100AK  25290.82712539  .00000253  00000+0  66905-3 0  9999
2 47291  87.8961  38.8146 0001889 102.6226 257.5114 13.12443157232978
ONEWEB-0146             
1 47292U 20100AL  25290.82388072  .00000389  00000+0  10449-2 0  9992
2 47292  87.8963  38.8022 0001390 105.0828 255.0455 13.12443627232889
ONEWEB-0147             
1 47293U 20100AM  25290.71356440 -.00000448  00000+0 -12820-2 0  9998
2 47293  87.8968  38.8026 0001876 109.5324 250.6007 13.12443140232769
ONEWEB-0115             
1 48042U 21025A   25290.93095363 -.00000203  00000+0 -58950-3 0  9990
2 48042  87.9052   8.3542 0001743 100.9279 259.2046 13.13471146221796
ONEWEB-0152             
1 48043U 21025B   25290.94450395 -.00000279  00000+0 -79755-3 0  9991
2 48043  87.9040   8.3638 0001734 104.2130 255.9192 13.13469914221754
ONEWEB-0153             
1 48044U 21025C   25290.92250024 -.00000017  00000+0 -81744-4 0  9999
2 48044  87.9052   8.3700 0001836  99.0953 261.0384 13.13469577221740
ONEWEB-0154             
1 48045U 21025D   25290.91910582 -.00000026  00000+0 -10608-3 0  9991
2 48045  87.9055   8.3670 0001838 103.0222 257.1113 13.13470343221702
ONEWEB-0116             
1 48046U 21025E   25290.95804908 -.00000020  00000+0 -89744-4 0  9992
2 48046  87.9052   8.3425 0001707 103.5546 256.5774 13.13470744221854
ONEWEB-0150             
1 48047U 21025F   25290.93434745 -.00000180  00000+0 -52726-3 0  9995
2 48047  87.9050   8.3413 0001841  94.2176 265.9164 13.13470368221741
ONEWEB-0107             
1 48048U 21025G   25290.93603638 -.00000224  00000+0 -64756-3 0  9990
2 48048  87.9052   8.3389 0002115  98.9097 261.2272 13.13471347221729
ONEWEB-0101             
1 48049U 21025H   25290.97499206  .00000351  00000+0  92695-3 0  9991
2 48049  87.9046   8.3686 0001915 103.0458 257.0885 13.13470125221703
ONEWEB-0113             
1 48050U 21025J   25290.93687765 -.00000166  00000+0 -48480-3 0  9997
2 48050  87.9050   8.3117 0001588  97.5061 262.6249 13.13980075221797
ONEWEB-0112             
1 48051U 21025K   25290.94112121 -.00000300  00000+0 -85678-3 0  9998
2 48051  87.9053   8.3345 0001789  98.3462 261.7871 13.13471070221792
